#cP2022 10 30  0  0  0.00000000      96 ORBIT IGb14 HLM  IGS
## 2234      0.00000000   900.00000000 59882 0.0000000000000
+   32   G01G02G03G04G05G06G07G08G09G10G11G12G13G14G15G16G17
+        G18G19G20G21G22G23G24G25G26G27G28G29G30G31G32  0  0
+          0  0  0  0  0  0  0  0  0  0  0  0  0  0  0  0  0
+          0  0  0  0  0  0  0  0  0  0  0  0  0  0  0  0  0
+          0  0  0  0  0  0  0  0  0  0  0  0  0  0  0  0  0
++         2  2  2  2  2  3  2  2  2  2  3  2  2  3  2  2  2
++         3  2  2  2  2  2  2  2  2  2  0  2  2  2  2  0  0
++         0  0  0  0  0  0  0  0  0  0  0  0  0  0  0  0  0
++         0  0  0  0  0  0  0  0  0  0  0  0  0  0  0  0  0
++         0  0  0  0  0  0  0  0  0  0  0  0  0  0  0  0  0
%c G  cc GPS ccc cccc cccc cccc cccc ccccc ccccc ccccc ccccc
%c cc cc ccc ccc cccc cccc cccc cccc ccccc ccccc ccccc ccccc
%f  1.2500000  1.025000000  0.00000000000  0.000000000000000
%f  0.0000000  0.000000000  0.00000000000  0.000000000000000
%i    0    0    0    0      0      0      0      0         0
%i    0    0    0    0      0      0      0      0         0
/* RAPID ORBIT COMBINATION FROM WEIGHTED AVERAGE OF:        
/* cod emr esa gfz jpl ngs sio usn whu                      
/* REFERENCED TO IGS TIME (IGST) AND TO WEIGHTED MEAN POLE: 
/* PCV:IGS14_2233 OL/AL:FES2004  NONE     Y  ORB:CMB CLK:CMB
*  2022 10 30  5 15  0.00000000
PG01  13241.840054  -8670.948303  20949.647807    259.576324  8  7  6 104       
PG02 -12557.167362  10426.901993 -20371.159889   -640.192882  2  5  6 135       
PG03  23233.394910 -11375.246753   5650.598393   -369.248921  4  2  3  64       
PG04  20364.675905  -2720.726927 -16887.802128    -95.245009  7  6  5  94       
PG05 -21110.935842   1777.205554 -16265.463433   -102.341567  5  4  7 125       
PG06  -6531.182864 -24668.800920  -7155.141258    505.112999  4  8  8  76       
PG07   6751.614130 -22326.058082 -11810.039874    293.361532  5  6  4  97       
PG08  24963.490817   4838.034213   8252.753950    -91.337331  3  2  5 101       
PG09  10296.450742 -12001.523026 -21425.608440   -276.139681  6  4  2  54       
PG10  -3220.998059  18074.474169  19229.113818     -9.699533  3  6  4  83       
PG11 -12066.973060 -16738.219033 -16740.053052    -32.279514  8 10  7 133       
PG12 -23982.842698   9515.431438   5802.154003   -298.212880  5  7  5  94       
PG13 -23020.729597 -13228.945520   2256.214195    415.337071  5  8  5  99       
PG14   5879.553654 -18803.709689  17768.039708    -89.479880  3 12  9  92       
PG15 -25333.349684  -2058.385431   7749.385889    -16.709767  4  6  6  89       
PG16  18106.251237   4989.911192 -19239.096987   -526.741716  2  5  3  86       
PG17  -3578.633931 -17490.188583  20084.663631    673.405171  5  8  6  96       
PG18  -5946.117662  23447.089349 -10807.405438     -3.345864  7 12 10  64       
PG19 -14358.213275 -18628.283716  12355.478082    230.532687  6  9  6  78       
PG20 -12415.240576  -9526.984895 -21432.054522    474.263927  6  7  5 107       
PG21  15777.333421   1255.764636  22006.920618    157.081768  3  2  3 106       
PG22  16345.472898  18268.602762  10865.320483    355.012456  4  7  4  78       
PG23 -13442.223577  19674.402055  11580.706718     -1.160619  4  7  5 107       
PG24 -15046.564623   4465.790473  21072.100588     80.003191  3  7  6  85       
PG25 -19519.623313  17355.798690  -4190.219348    387.510147  4  6  2  82       
PG26   9551.203821  12575.654666 -21442.467272    234.181661  3  7  7  66       
PG27  23179.434529  13142.555991  -2884.102841    188.768992  6  6  3  72       
PG28   5172.560651  14816.399455 -21726.928882 999999.999999
PG29 -12452.529265   9525.300919 -21493.580297   -563.479404  3  6  6 130       
PG30   -855.671587 -26374.003721  -1232.317300   -537.072250  2  8  3  91       
PG31   7436.778659  23805.397666  -8577.583209   -198.513030  4  8  6  77       
PG32   7819.822971  17822.019987  18311.273358   -279.507171  5  3  3  81       
*  2022 10 30  5 30  0.00000000
PG01  13543.925798  -6186.457622  21646.070391    259.570985  8  5  6  93       
PG02 -13093.999364   7985.298787 -21086.002895   -640.191370  2  5  6 132       
PG03  22699.818438 -10718.918379   8389.982318   -369.251708  5  1  2  60       
PG04  21933.363493  -1787.290932 -14944.911014    -95.239246  7  6  5 109       
PG05 -19702.729646    452.925909 -18034.737059   -102.342606  5  5  7 118       
PG06  -6425.947814 -25348.618522  -4340.988439    505.122071  5  8  9  60       
PG07   7187.746004 -20801.361404 -14086.180641    293.357684  5  5  4 100       
PG08  25611.616942   5334.295329   5563.546427    -91.339177  2  1  5  97       
PG09  12491.925770 -11033.406958 -20769.800932   -276.134798  6  4  2  78       
PG10  -4973.246395  19217.397105  17643.215528     -9.700491  3  6  4  71       
PG11 -12007.705879 -18546.218926 -14764.428009    -32.284200  9 10  7 121       
PG12 -23388.875708   8859.422970   8517.350082   -298.216669  5  7  5  92       
PG13 -23003.353995 -13474.375048   -602.545302    415.343061  5  8  4  81       
PG14   7579.949402 -19749.583421  15999.467894    -89.475776  3 12  9  94       
PG15 -26002.692481  -2571.314531   5101.495615    -16.706866  4  5  6  86       
PG16  16265.168645   6201.217234 -20468.554870   -526.741698  2  5  2  89       
PG17  -1525.592933 -16521.757499  21166.492021    673.407907  5  8  5  96       
PG18  -6267.612280  22093.820200 -13221.440781     -3.358128  8 12 11 127       
PG19 -12918.496711 -17990.032809  14615.872773    230.537367  7  9  6  84       
PG20 -10707.465148 -11305.351354 -21509.376274    474.261275  6  7  4 107       
PG21  16221.312838   3563.577519  21474.481061    157.080702  3     4  99       
PG22  15097.724532  17812.787031  13243.375760    355.018973  4  7  4  82       
PG23 -14502.739392  20240.191678   9038.252871     -1.160662  4  8  5 102       
PG24 -15552.704272   2023.322599  21118.351118     79.989480  3  7  5  77       
PG25 -19923.660536  17298.386585  -1352.623053    387.513517  4  4  2  90       
PG26   7662.739807  14109.173363 -21214.746057    234.182832  3  7  6  88       
PG27  22681.403000  13136.220003  -5680.221724    188.762271  6  6  3  84       
PG28   3184.483766  16139.395905 -21120.251762 999999.999999
PG29 -14544.914254   8355.826882 -20654.925099   -563.481914  3  5  5 124       
PG30   -482.336868 -26095.534304  -4030.981438   -537.072127  3  7  4  93       
PG31   7223.487230  24647.949188  -5871.669705   -198.514257  4  8  5  84       
PG32   5804.442793  17089.577333  19699.850581   -279.518199  5  2  4  80       
*  2022 10 30  5 45  0.00000000
PG01  13992.063973  -3667.765304  21957.727429    259.565639  7  4  5  90       
PG02 -13771.736002   5512.512136 -21417.396460   -640.189645  2  5  6 134       
PG03  21969.620381  -9839.015667  10983.453959   -369.254606  5  1  2  63       
PG04  23331.619964  -1025.884372 -12746.003347    -95.233468  7  6  4  99       
PG05 -18232.535371  -1066.254179 -19498.993863   -102.344060  5  5  6 120       
PG06  -6305.589652 -25712.925519  -1451.675282    505.131117  5  8  9  88       
PG07   7739.745267 -19054.734786 -16107.762399    293.353839  5  5  5 107       
PG08  25994.075455   5695.754006   2780.553429    -91.340662  3  2  5  92       
PG09  14645.366477 -10209.991338 -19759.409986   -276.129913  5  4  2  84       
PG10  -6513.035561  20328.162708  15753.644516     -9.702444  2  5  4  91       
PG11 -12015.651655 -20118.288139 -12535.086680    -32.288865  9 10  7 119       
PG12 -22586.056597   7994.660887  11083.608950   -298.220799  5  7  5  99       
PG13 -22715.520956 -13568.385370  -3451.074676    415.349198  5  8  4 105       
PG14   9060.604747 -20647.787513  13954.420104    -89.471755  2 12  9  97       
PG15 -26399.616773  -2981.261397   2366.371229    -16.703863  3  5  6  94       
PG16  14393.628571   7579.997021 -21357.790122   -526.742230  2  5  2  97       
PG17    668.524184 -15629.364096  21897.494562    673.411073  5  8  5  98       
PG18  -6700.908558  20501.894208 -15406.381879     -3.370470  8 12 11 131       
PG19 -11225.472894 -17324.240587  16624.023883    230.541650  7  9  5  88       
PG20  -9099.619912 -13155.379113 -21216.334813    474.258337  6  6  4 102       
PG21  16769.632014   5764.033983  20595.927277    157.080015  3     4 100       
PG22  13600.357065  17316.720786  15400.678943    355.024940  4  7  5  93       
PG23 -15308.679566  20664.147530   6338.994427     -1.160688  4  8  5 113       
PG24 -16167.972275   -372.654224  20790.583785     79.975790  3  8  5 101       
PG25 -20084.690374  17049.686220   1508.592415    387.516949  5  2  3  91       
PG26   5881.442939  15702.730003 -20623.845703    234.184068  3  8  6  97       
PG27  21895.254186  13050.915786  -8381.385610    188.755577  6  7  4  92       
PG28   1333.757073  17512.563201 -20158.662048 999999.999999
PG29 -16593.535372   7351.283733 -19462.777136   -563.484349  3  5  5 114       
PG30    -46.830117 -25525.065730  -6759.067455   -537.071971  3  7  5 119       
PG31   7004.759534  25189.815879  -3062.256322   -198.515644  3  8  5  92       
PG32   3623.461520  16417.187159  20755.379358   -279.529214  5  3  5  86       
EOF
